{
  "type": "FeatureCollection",
  "features": [
    {
      "type": "Feature",
      "properties": {
        "norad_id": 33765,
        "name": "COSMOS 2251 DEB",
        "group": "cosmos-2251-debris",
        "lat": -32.768687020372006,
        "lon": 16.050677687021768,
        "alt_km": 523.3764189254407,
        "timestamp": "2025-12-06T18:50:10.562155+00:00",
        "meta_object_name": "COSMOS 2251 DEB",
        "meta_object_id": "1993-036N",
        "meta_epoch": "2025-12-06T07:31:16.349088",
        "meta_mean_motion": 15.09407844,
        "meta_eccentricity": 0.00669622,
        "meta_inclination": 74.0096,
        "meta_ra_of_asc_node": 186.3873,
        "meta_arg_of_pericenter": 279.6256,
        "meta_mean_anomaly": 254.4231,
        "meta_ephemeris_type": 0,
        "meta_classification_type": "U",
        "meta_norad_cat_id": 33765,
        "meta_element_set_no": 999,
        "meta_rev_at_epoch": 89521,
        "meta_bstar": 0.0035450599,
        "meta_mean_motion_dot": 0.00060196,
        "meta_mean_motion_ddot": 0,
        "tle_line1": "1 33765U 93036N   25340.31338367  .00060196  00000+0  35451-2 0  9994",
        "tle_line2": "2 33765  74.0096 186.3873 0066962 279.6256 254.4231 15.09407844895212"
      },
      "geometry": {
        "type": "Point",
        "coordinates": [
          16.050677687021768,
          -32.768687020372006
        ]
      }
    },
    {
      "type": "Feature",
      "properties": {
        "norad_id": 33766,
        "name": "COSMOS 2251 DEB",
        "group": "cosmos-2251-debris",
        "lat": -46.44984322472268,
        "lon": -16.8603977237737,
        "alt_km": 805.8136754753514,
        "timestamp": "2025-12-06T18:50:10.562166+00:00",
        "meta_object_name": "COSMOS 2251 DEB",
        "meta_object_id": "1993-036P",
        "meta_epoch": "2025-12-06T06:03:25.796160",
        "meta_mean_motion": 14.34905979,
        "meta_eccentricity": 0.00638398,
        "meta_inclination": 74.185,
        "meta_ra_of_asc_node": 146.7592,
        "meta_arg_of_pericenter": 351.9495,
        "meta_mean_anomaly": 8.0627,
        "meta_ephemeris_type": 0,
        "meta_classification_type": "U",
        "meta_norad_cat_id": 33766,
        "meta_element_set_no": 999,
        "meta_rev_at_epoch": 87652,
        "meta_bstar": 0.00094262462,
        "meta_mean_motion_dot": 2.718e-05,
        "meta_mean_motion_ddot": 0,
        "tle_line1": "1 33766U 93036P   25340.25238190  .00002718  00000+0  94262-3 0  9993",
        "tle_line2": "2 33766  74.1850 146.7592 0063839 351.9495   8.0627 14.34905979876523"
      },
      "geometry": {
        "type": "Point",
        "coordinates": [
          -16.8603977237737,
          -46.44984322472268
        ]
      }
    },
    {
      "type": "Feature",
      "properties": {
        "norad_id": 33768,
        "name": "COSMOS 2251 DEB",
        "group": "cosmos-2251-debris",
        "lat": -7.392535217468068,
        "lon": -132.64605277283496,
        "alt_km": 822.003219459014,
        "timestamp": "2025-12-06T18:50:10.562177+00:00",
        "meta_object_name": "COSMOS 2251 DEB",
        "meta_object_id": "1993-036R",
        "meta_epoch": "2025-12-05T23:31:52.175136",
        "meta_mean_motion": 13.58446031,
        "meta_eccentricity": 0.03659703,
        "meta_inclination": 74.0687,
        "meta_ra_of_asc_node": 230.7754,
        "meta_arg_of_pericenter": 30.0022,
        "meta_mean_anomaly": 352.5709,
        "meta_ephemeris_type": 0,
        "meta_classification_type": "U",
        "meta_norad_cat_id": 33768,
        "meta_element_set_no": 999,
        "meta_rev_at_epoch": 83204,
        "meta_bstar": 0.00060156946,
        "meta_mean_motion_dot": 6.58e-06,
        "meta_mean_motion_ddot": 0,
        "tle_line1": "1 33768U 93036R   25339.98046499  .00000658  00000+0  60157-3 0  9999",
        "tle_line2": "2 33768  74.0687 230.7754 0365970  30.0022 352.5709 13.58446031832049"
      },
      "geometry": {
        "type": "Point",
        "coordinates": [
          -132.64605277283496,
          -7.392535217468068
        ]
      }
    },
    {
      "type": "Feature",
      "properties": {
        "norad_id": 33779,
        "name": "COSMOS 2251 DEB",
        "group": "cosmos-2251-debris",
        "lat": 7.353034630999585,
        "lon": 0.1517284491707083,
        "alt_km": 653.0432656778066,
        "timestamp": "2025-12-06T18:50:10.562188+00:00",
        "meta_object_name": "COSMOS 2251 DEB",
        "meta_object_id": "1993-036U",
        "meta_epoch": "2025-12-06T00:47:01.627872",
        "meta_mean_motion": 14.70242989,
        "meta_eccentricity": 0.00176005,
        "meta_inclination": 74.0438,
        "meta_ra_of_asc_node": 183.7252,
        "meta_arg_of_pericenter": 218.4807,
        "meta_mean_anomaly": 294.2931,
        "meta_ephemeris_type": 0,
        "meta_classification_type": "U",
        "meta_norad_cat_id": 33779,
        "meta_element_set_no": 999,
        "meta_rev_at_epoch": 88429,
        "meta_bstar": 0.0021323188,
        "meta_mean_motion_dot": 0.00012883,
        "meta_mean_motion_ddot": 0,
        "tle_line1": "1 33779U 93036U   25340.03265773  .00012883  00000+0  21323-2 0  9991",
        "tle_line2": "2 33779  74.0438 183.7252 0017600 218.4807 294.2931 14.70242989884296"
      },
      "geometry": {
        "type": "Point",
        "coordinates": [
          0.1517284491707083,
          7.353034630999585
        ]
      }
    },
    {
      "type": "Feature",
      "properties": {
        "norad_id": 33782,
        "name": "COSMOS 2251 DEB",
        "group": "cosmos-2251-debris",
        "lat": -32.28019233769246,
        "lon": 118.9789220770646,
        "alt_km": 774.1346219583002,
        "timestamp": "2025-12-06T18:50:10.562199+00:00",
        "meta_object_name": "COSMOS 2251 DEB",
        "meta_object_id": "1993-036X",
        "meta_epoch": "2025-12-05T22:06:18.204192",
        "meta_mean_motion": 14.40416484,
        "meta_eccentricity": 0.0020482,
        "meta_inclination": 74.034,
        "meta_ra_of_asc_node": 290.1566,
        "meta_arg_of_pericenter": 356.119,
        "meta_mean_anomaly": 60.2395,
        "meta_ephemeris_type": 0,
        "meta_classification_type": "U",
        "meta_norad_cat_id": 33782,
        "meta_element_set_no": 999,
        "meta_rev_at_epoch": 88028,
        "meta_bstar": 0.00084080179,
        "meta_mean_motion_dot": 2.652e-05,
        "meta_mean_motion_ddot": 0,
        "tle_line1": "1 33782U 93036X   25339.92104403  .00002652  00000+0  84080-3 0  9996",
        "tle_line2": "2 33782  74.0340 290.1566 0020482 356.1190  60.2395 14.40416484880280"
      },
      "geometry": {
        "type": "Point",
        "coordinates": [
          118.9789220770646,
          -32.28019233769246
        ]
      }
    },
    {
      "type": "Feature",
      "properties": {
        "norad_id": 33785,
        "name": "COSMOS 2251 DEB",
        "group": "cosmos-2251-debris",
        "lat": 33.47173572059867,
        "lon": -119.43169962100205,
        "alt_km": 668.1253116810494,
        "timestamp": "2025-12-06T18:50:10.562209+00:00",
        "meta_object_name": "COSMOS 2251 DEB",
        "meta_object_id": "1993-036AA",
        "meta_epoch": "2025-12-06T05:13:34.357728",
        "meta_mean_motion": 14.70251009,
        "meta_eccentricity": 0.00216666,
        "meta_inclination": 73.8682,
        "meta_ra_of_asc_node": 72.7114,
        "meta_arg_of_pericenter": 13.228,
        "meta_mean_anomaly": 11.1372,
        "meta_ephemeris_type": 0,
        "meta_classification_type": "U",
        "meta_norad_cat_id": 33785,
        "meta_element_set_no": 999,
        "meta_rev_at_epoch": 88411,
        "meta_bstar": 0.0031016756,
        "meta_mean_motion_dot": 0.00018796,
        "meta_mean_motion_ddot": 0,
        "tle_line1": "1 33785U 93036AA  25340.21775877  .00018796  00000+0  31017-2 0  9999",
        "tle_line2": "2 33785  73.8682  72.7114 0021666  13.2280  11.1372 14.70251009884117"
      },
      "geometry": {
        "type": "Point",
        "coordinates": [
          -119.43169962100205,
          33.47173572059867
        ]
      }
    },
    {
      "type": "Feature",
      "properties": {
        "norad_id": 33789,
        "name": "COSMOS 2251 DEB",
        "group": "cosmos-2251-debris",
        "lat": -73.83266540705284,
        "lon": 17.26907308229777,
        "alt_km": 844.4386136581716,
        "timestamp": "2025-12-06T18:50:10.562220+00:00",
        "meta_object_name": "COSMOS 2251 DEB",
        "meta_object_id": "1993-036AE",
        "meta_epoch": "2025-12-06T02:50:19.175136",
        "meta_mean_motion": 13.88770754,
        "meta_eccentricity": 0.024042,
        "meta_inclination": 74.0639,
        "meta_ra_of_asc_node": 98.6432,
        "meta_arg_of_pericenter": 215.7219,
        "meta_mean_anomaly": 323.399,
        "meta_ephemeris_type": 0,
        "meta_classification_type": "U",
        "meta_norad_cat_id": 33789,
        "meta_element_set_no": 999,
        "meta_rev_at_epoch": 85003,
        "meta_bstar": 0.001294361,
        "meta_mean_motion_dot": 1.944e-05,
        "meta_mean_motion_ddot": 0,
        "tle_line1": "1 33789U 93036AE  25340.11827749  .00001944  00000+0  12944-2 0  9993",
        "tle_line2": "2 33789  74.0639  98.6432 0240420 215.7219 323.3990 13.88770754850037"
      },
      "geometry": {
        "type": "Point",
        "coordinates": [
          17.26907308229777,
          -73.83266540705284
        ]
      }
    }
  ]
}